[{"OBJECT_NAME":"STARLINK-30713","OBJECT_ID":"2023-148T","EPOCH":"2026-03-09T03:51:21.207168","MEAN_MOTION":15.30192059,"ECCENTRICITY":0.00012361,"INCLINATION":53.1601,"RA_OF_ASC_NODE":26.5766,"ARG_OF_PERICENTER":69.2154,"MEAN_ANOMALY":290.898,"EPHEMERIS_TYPE":0,"CLASSIFICATION_TYPE":"U","NORAD_CAT_ID":57952,"ELEMENT_SET_NO":999,"REV_AT_EPOCH":13834,"BSTAR":0.00018932402,"MEAN_MOTION_DOT":5.251e-5,"MEAN_MOTION_DDOT":0},{"OBJECT_NAME":"TRANSPORTER-10 OBJECT AG","OBJECT_ID":"2024-043AG","EPOCH":"2026-03-09T22:12:45.387648","MEAN_MOTION":15.30759727,"ECCENTRICITY":0.00093005,"INCLINATION":97.5471,"RA_OF_ASC_NODE":205.7101,"ARG_OF_PERICENTER":226.5958,"MEAN_ANOMALY":133.4509,"EPHEMERIS_TYPE":0,"CLASSIFICATION_TYPE":"U","NORAD_CAT_ID":59128,"ELEMENT_SET_NO":999,"REV_AT_EPOCH":11192,"BSTAR":0.00032170115,"MEAN_MOTION_DOT":9.498e-5,"MEAN_MOTION_DDOT":0}]
